# From MPC106349
188P/LINEAR-Mueller,e,10.5261,358.9665,26.5787,4.372552,0.1077957,0.41637024,200.5933,03/26.0/2022,2000,g 11.5,4.0
# From MPC106349
189P/NEAT,e,20.0683,281.7189,16.3200,2.945748,0.1949444,0.58870064,329.6204,03/26.0/2022,2000,g 19.0,4.0
# From MPEC 2020-K19
190P/Mueller,e,2.1741,335.5669,50.3186,4.232505,0.1131899,0.52186907,246.3414,03/26.0/2022,2000,g 13.0,4.0
# From MPEC 2022-C56
191P/McNaught,e,8.8418,98.2324,284.0542,3.635818,0.1421677,0.38595213,52.7092,03/26.0/2022,2000,g 13.0,4.0
# From MPC 75724
192P/Shoemaker-Levy,e,24.5743,51.6121,313.0103,6.472938,0.0598483,0.77341769,312.6997,03/26.0/2022,2000,g 15.0,4.0
# From MPEC 2022-CN4
193P/LINEAR-NEAT,e,10.6885,335.1735,8.0751,3.576542,0.1457166,0.39384629,31.0115,03/26.0/2022,2000,g 14.0,4.0
# From MPC 98566
194P/LINEAR,e,11.9970,349.5941,129.6784,4.091958,0.1190714,0.57314032,279.4706,03/26.0/2022,2000,g 16.0,4.0
# From MPEC 2021-S45
195P/Hill,e,36.3321,243.1254,249.2506,6.505910,0.0593939,0.31378860,287.5854,03/26.0/2022,2000,g  8.5,4.0
# From MPC 92985
196P/Tichy,e,19.2951,24.1234,12.1090,3.806602,0.1327083,0.42869604,331.1337,03/26.0/2022,2000,g 13.5,4.0
# From MPC 94676
197P/LINEAR,e,25.5284,66.3696,188.7485,2.868023,0.2029224,0.62941751,307.9062,03/26.0/2022,2000,g 16.5,2.0
# From NK 1596
198P/ODAS,e,1.3386,358.2469,69.1764,3.597619,0.1444380,0.44379204,173.0270,03/26.0/2022,2000,g  9.0,4.0
# From MPEC 2022-F14
199P/Shoemaker,e,24.9321,92.3630,191.7262,5.889042,0.0689663,0.50575938,325.5591,03/26.0/2022,2000,g 10.0,4.0
# From MPEC 2022-C56
200P/Larsen,e,12.0983,234.7692,134.1894,4.943636,0.0896673,0.33269085,87.0096,03/26.0/2022,2000,g  9.0,4.0
# From MPC 93588
201P/LONEOS,e,5.7393,19.7456,41.5471,3.354495,0.1604218,0.63712838,48.6570,03/26.0/2022,2000,g 14.0,4.0
# From MPEC 2021-N06
202P/Scotti,e,2.1123,177.4726,276.4982,4.088299,0.1192313,0.26103948,265.9777,03/26.0/2022,2000,g 13.5,4.0
# From MPEC 2021-S45
203P/Korlevic,e,2.9726,290.3254,154.7820,4.670327,0.0976524,0.31535541,73.3695,03/26.0/2022,2000,g 14.5,2.0
# From MPC 98566
204P/LINEAR-NEAT,e,6.5960,108.5083,356.6046,3.582669,0.1453429,0.48790300,325.7295,03/26.0/2022,2000,g 14.0,4.0
# From MPEC 2021-W31
205P/Giacobini,e,15.3061,179.6020,154.1841,3.543429,0.1477640,0.56819465,10.5352,03/26.0/2022,2000,g 13.0,4.0
# From MPC 75725
206P/Barnard-Boattini,e,33.6349,202.3376,189.5010,3.488903,0.1512414,0.55145412,58.4479,03/26.0/2022,2000,g 19.0,4.0
# From MPC 75725
207P/NEAT,e,10.1950,198.2187,273.0595,3.874689,0.1292257,0.75872654,272.5372,03/26.0/2022,2000,g 16.0,4.0
# From MPEC 2020-W26
208P/McMillan,e,4.4119,36.3401,310.5163,4.043885,0.1212009,0.37408196,253.1755,03/26.0/2022,2000,g 12.5,4.0
# From MPC 90771
209P/LINEAR,e,21.2567,62.7726,152.4474,2.959900,0.1935479,0.67306988,196.9923,03/26.0/2022,2000,g 17.0,2.0
# From MPC105242
210P/Christensen,e,10.2665,93.8196,345.8933,3.163603,0.1751584,0.83335760,125.6042,03/26.0/2022,2000,g 13.5,4.0
# From MPEC 2022-ED3
211P/Hill,e,18.9214,117.1312,4.2819,3.545967,0.1476053,0.34358573,331.5691,03/26.0/2022,2000,g 12.5,4.0
# From MPEC 2021-F20
212P/NEAT,e,22.1814,98.1796,14.0728,3.893386,0.1282959,0.58742276,262.3372,03/26.0/2022,2000,g 17.0,2.0
# From MPC114608
213P/Van Ness,e,10.3810,311.2929,5.6871,3.347086,0.1609547,0.40824324,264.1863,03/26.0/2022,2000,g 10.5,4.0
# From MPC 92986
214P/LINEAR,e,15.1834,348.2492,190.1999,3.619436,0.1431340,0.48586729,333.6268,03/26.0/2022,2000,g 13.0,4.0
# From MPEC 2022-F14
215P/NEAT,e,10.5792,56.6850,262.2866,4.329261,0.1094167,0.16658573,93.8493,03/26.0/2022,2000,g 11.0,4.0
# From MPC100284
216P/LINEAR,e,9.0652,359.8134,151.4529,3.864524,0.1297359,0.44791157,275.4486,03/26.0/2022,2000,g 13.0,4.0
# From MPEC 2021-N06
217P/LINEAR,e,12.8632,125.4607,246.8774,3.949737,0.1255601,0.68909314,214.8989,03/26.0/2022,2000,g 12.0,4.0
# From MPEC 2020-K19
218P/LINEAR,e,2.7290,175.9813,59.6681,3.091008,0.1813651,0.62236497,97.6092,03/26.0/2022,2000,g 16.0,4.0
# From MPC100284
219P/LINEAR,e,11.5357,230.9552,107.5014,3.648391,0.1414334,0.35412607,262.4865,03/26.0/2022,2000,g 11.0,4.0
# From MPEC 2021-BE3
220P/McNaught,e,8.1288,150.1020,180.5677,3.116513,0.1791434,0.50164619,84.2624,03/26.0/2022,2000,g 15.0,4.0
# From MPEC 2021-J28
221P/LINEAR,e,11.4274,229.6983,40.1283,3.456401,0.1533797,0.49278215,15.0176,03/26.0/2022,2000,g 14.5,4.0
# From MPC 92277
222P/LINEAR,e,5.0984,6.7763,346.2610,2.899162,0.1996619,0.71476403,204.5236,03/26.0/2022,2000,g 20.0,4.0
# From MPEC 2021-S45
223P/Skiff,e,27.0265,346.7707,37.8251,4.158925,0.1162070,0.41627638,133.9853,03/26.0/2022,2000,g 12.0,4.0
# From MPC 75727
224P/LINEAR-NEAT,e,13.3021,40.0475,16.6489,3.446458,0.1540439,0.40637848,331.0524,03/26.0/2022,2000,g 15.5,4.0
# From MPC 75727
225P/LINEAR,e,21.3657,14.2016,3.8868,3.649100,0.1413922,0.63834440,289.2901,03/26.0/2022,2000,g 18.0,4.0
# From MPC106349
226P/Pigott-LINEAR-Kowalski,e,44.0365,54.0056,341.0486,3.766874,0.1348132,0.52877601,273.5400,03/26.0/2022,2000,g 12.5,4.0
# From MPC102956
227P/Catalina-LINEAR,e,7.0332,40.3100,100.4137,3.498775,0.1506018,0.53000717,253.6060,03/26.0/2022,2000,g 16.5,2.0
# From MPEC 2020-L06
228P/LINEAR,e,7.9128,30.9833,115.0279,4.168908,0.1157899,0.17623341,86.4979,03/26.0/2022,2000,g 14.5,2.0
# From MPC106349
229P/Gibbs,e,26.0923,157.9109,223.9932,3.928218,0.1265933,0.37756592,223.8463,03/26.0/2022,2000,g 13.0,4.0
# From MPEC 2022-ED3
230P/LINEAR,e,15.4702,106.9843,313.4305,3.450996,0.1537402,0.54541334,1.0250,03/26.0/2022,2000,g 13.0,4.0
# From MPEC 2020-K19
231P/LINEAR-NEAT,e,12.3227,133.0155,43.9808,4.038796,0.1214301,0.24541341,122.9514,03/26.0/2022,2000,g 14.5,2.0
# From MPC112394
232P/Hill,e,14.6385,56.0167,53.3138,4.477423,0.1040308,0.33433445,112.9169,03/26.0/2022,2000,g 11.5,4.0
# From MPEC 2021-N06
233P/La Sagra,e,11.2856,74.9157,27.0016,3.029494,0.1869170,0.41189772,101.0120,03/26.0/2022,2000,g 15.0,4.0
# From MPC110497
234P/LINEAR,e,11.5351,179.5704,357.2294,3.798572,0.1331293,0.25564098,234.4800,03/26.0/2022,2000,g 12.0,4.0
# From MPC110497
235P/LINEAR,e,9.0687,202.8515,333.4678,3.944823,0.1257948,0.32986941,184.1722,03/26.0/2022,2000,g 12.0,4.0
# From MPC107688
236P/LINEAR,e,16.3426,245.5948,119.2801,3.729253,0.1368583,0.50923715,216.9154,03/26.0/2022,2000,g 14.0,4.0
# From MPEC 2022-ED3
237P/LINEAR,e,14.0147,245.3721,25.2416,3.512229,0.1497372,0.43430227,297.9155,03/26.0/2022,2000,g 14.5,2.0
# From MPC107688
238P/Read,e,1.2641,51.6235,324.2632,3.168380,0.1747625,0.25219565,347.4844,03/26.0/2022,2000,g 14.5,4.0
# From MPEC 2021-F20
239P/LINEAR,e,11.2986,255.9161,220.4116,4.469029,0.1043240,0.63008129,122.2444,03/26.0/2022,2000,g 17.5,2.0
# From MPEC 2021-F20
240P/NEAT,e,23.5194,74.9081,351.9441,3.865495,0.1296870,0.44935547,182.8831,03/26.0/2022,2000,g 12.1,4.0
# From MPEC 2022-ED3
241P/LINEAR,e,21.1059,305.4839,111.4384,4.918826,0.0903466,0.61015012,21.9672,03/26.0/2022,2000,g 13.5,4.0
# From MPEC 2021-S45
242P/Spahr,e,32.5057,180.3820,245.7395,5.491554,0.0765881,0.27843172,282.6132,03/26.0/2022,2000,g  8.0,4.0
# From MPC111774
243P/NEAT,e,7.6405,87.6200,283.5751,3.830504,0.1314680,0.36042703,171.8036,03/26.0/2022,2000,g 12.5,4.0
# From MPEC 2022-ED3
244P/Scotti,e,2.2594,353.9906,93.0602,4.894787,0.0910130,0.19903087,338.5287,03/26.0/2022,2000,g  9.0,4.0
# From MPEC 2022-CN4
245P/WISE,e,21.1952,316.6541,316.8808,4.045914,0.1211098,0.45668272,182.5038,03/26.0/2022,2000,g 14.0,4.0
# From MPEC 2021-WD8
246P/NEAT,e,15.9697,78.6534,176.6202,4.026471,0.1219880,0.28846815,48.1885,03/26.0/2022,2000,g 10.5,4.0
# From MPEC 2021-F20
247P/LINEAR,e,13.6556,54.0158,47.4364,3.968381,0.1246763,0.62433433,150.9484,03/26.0/2022,2000,g 16.5,2.0
# From MPC 75730
248P/Gibbs,e,6.3503,207.7931,209.8522,5.991315,0.0672080,0.63870658,274.6824,03/26.0/2022,2000,g 14.0,4.0
# From MPEC 2021-S45
249P/LINEAR,e,8.3902,239.1290,65.6813,2.763235,0.2145741,0.81995312,136.1500,03/26.0/2022,2000,g 15.5,4.0
# From MPC110497
250P/Larson,e,13.1572,73.4239,46.1533,3.765608,0.1348812,0.39952434,205.0194,03/26.0/2022,2000,g 14.5,4.0
# From MPC104795
251P/LINEAR,e,23.3880,219.3611,31.2830,3.511773,0.1497664,0.50472562,256.7802,03/26.0/2022,2000,g 16.5,2.0
# From MPEC 2021-S45
252P/LINEAR,e,10.4102,190.9377,343.3219,3.049608,0.1850708,0.67182518,47.6949,03/26.0/2022,2000,g 17.5,4.0
# From MPEC 2020-FB5
253P/PANSTARRS,e,4.9435,146.8848,230.6578,3.465752,0.1527593,0.41427771,216.4295,03/26.0/2022,2000,g 14.5,4.0
# From MPEC 2022-F14
254P/McNaught,e,32.5715,129.1780,219.5737,4.613509,0.0994620,0.31978102,53.9015,03/26.0/2022,2000,g 11.0,4.0
# From MPEC 2021-UA9
255P/Levy,e,13.4118,275.6817,185.9907,2.943541,0.1951637,0.71167006,327.7429,03/26.0/2022,2000,g 14.1,4.0
# From MPEC 2022-C56
256P/LINEAR,e,27.6206,81.3435,124.2198,4.638926,0.0986456,0.41799156,325.3397,03/26.0/2022,2000,g 14.0,2.0
# From MPEC 2021-Y10
257P/Catalina,e,20.2209,207.7279,117.7001,3.762803,0.1350321,0.43032790,75.7868,03/26.0/2022,2000,g 11.5,4.0
# From MPEC 2021-U31
258P/PANSTARRS,e,6.7461,126.2439,25.9047,4.396608,0.1069123,0.20843795,69.0359,03/26.0/2022,2000,g 13.0,4.0
# From MPC106349
259P/Garradd,e,15.8903,51.4452,257.6462,2.730818,0.2184062,0.33879356,9.9602,03/26.0/2022,2000,g 15.5,4.0
# From MPEC 2020-SI8
260P/McNaught,e,15.0585,349.3383,18.4221,3.623124,0.1429155,0.60928776,132.5693,03/26.0/2022,2000,g 13.5,4.0
# From MPEC 2021-J28
261P/Larson,e,6.0736,291.1432,67.1993,3.490442,0.1511414,0.42332334,152.7637,03/26.0/2022,2000,g 14.0,4.0
# From MPC 82322
262P/McNaught-Russell,e,29.2567,217.8714,171.0318,6.873041,0.0546992,0.81602398,185.9626,03/26.0/2022,2000,g 13.5,4.0
# From MPC 89018
263P/Gibbs,e,11.5210,105.5405,34.9556,3.043714,0.1856087,0.59353906,302.3595,03/26.0/2022,2000,g  9.0,4.0
# From MPC114608
264P/Larsen,e,25.2166,220.4380,346.7202,3.889864,0.1284702,0.37544843,123.9143,03/26.0/2022,2000,g 13.0,4.0
# From MPC 79870
265P/LINEAR,e,14.3650,342.9259,33.4550,4.254227,0.1123241,0.64757295,46.0418,03/26.0/2022,2000,g 14.5,4.0
# From MPEC 2021-F20
